{
  "norad_id": 44072,
  "name": "PRISMA",
  "history": [
    {
      "epoch": "2026-03-28T21:14:51.883872Z",
      "apogee_km": 618.7560368334216,
      "perigee_km": 616.8094921181528,
      "latitude_deg": -5.424421245770522e-06,
      "longitude_deg": 18.822868123557697,
      "height_km": 620.7476512119613,
      "semi_major_axis_km": 6995.919764475787,
      "eccentricity": 0.00013912,
      "inclination_deg": 97.8683,
      "raan_deg": 163.8384,
      "arg_perigee_deg": 86.4462,
      "mean_anomaly_deg": 273.6911,
      "mean_motion_rev_day": 14.83663908
    },
    {
      "epoch": "2026-03-29T05:20:26.737152Z",
      "apogee_km": 618.737413865867,
      "perigee_km": 616.82053288916,
      "latitude_deg": 3.657626302753604e-05,
      "longitude_deg": -102.57222788864827,
      "height_km": 620.7450697271422,
      "semi_major_axis_km": 6995.915973377513,
      "eccentricity": 0.000137,
      "inclination_deg": 97.8684,
      "raan_deg": 164.1709,
      "arg_perigee_deg": 86.4619,
      "mean_anomaly_deg": 273.6752,
      "mean_motion_rev_day": 14.83665114
    }
  ]
}